[{"OBJECT_NAME":"ONEWEB-0503","OBJECT_ID":"2022-138J","EPOCH":"2026-03-09T17:52:54.992352","MEAN_MOTION":13.19725106,"ECCENTRICITY":0.00014417,"INCLINATION":87.9238,"RA_OF_ASC_NODE":324.7656,"ARG_OF_PERICENTER":76.1728,"MEAN_ANOMALY":283.9565,"EPHEMERIS_TYPE":0,"CLASSIFICATION_TYPE":"U","NORAD_CAT_ID":54121,"ELEMENT_SET_NO":999,"REV_AT_EPOCH":16370,"BSTAR":-0.00018946401,"MEAN_MOTION_DOT":-6.3e-7,"MEAN_MOTION_DDOT":0},{"OBJECT_NAME":"CZ-4C DEB","OBJECT_ID":"2013-046F","EPOCH":"2026-03-09T23:38:01.893696","MEAN_MOTION":13.44810292,"ECCENTRICITY":0.04232646,"INCLINATION":63.3916,"RA_OF_ASC_NODE":9.356,"ARG_OF_PERICENTER":11.6721,"MEAN_ANOMALY":349.3752,"EPHEMERIS_TYPE":0,"CLASSIFICATION_TYPE":"U","NORAD_CAT_ID":39244,"ELEMENT_SET_NO":999,"REV_AT_EPOCH":61450,"BSTAR":0.00043872148,"MEAN_MOTION_DOT":3.51e-6,"MEAN_MOTION_DDOT":0}]
